NUSAT-48 (HENRIETTA LE*)
1 60498U 24149AG  26068.80506098  .00012988  00000+0  45212-3 0  9999
2 60498  97.3923 150.8264 0002754 263.3026  96.7901 15.29812597 86946
STARLINK-35184          
1 65506U 25198Q   26068.87986465  .00029392  00000+0  10004-2 0  9993
2 65506  53.1599 269.7990 0001129  71.2330 288.8793 15.30206003 28653
